{
    "links": {
        "self": "http://www.neowsapp.com/rest/v1/neo/3394775?api_key=iIulBulltgU6a56xZRHN4H3l9WmuAYTsLGpBGhQ2"
    },
    "id": "3394775",
    "neo_reference_id": "3394775",
    "name": "(2007 VD191)",
    "designation": "2007 VD191",
    "nasa_jpl_url": "http://ssd.jpl.nasa.gov/sbdb.cgi?sstr=3394775",
    "absolute_magnitude_h": 24.6,
    "estimated_diameter": {
        "kilometers": {
            "estimated_diameter_min": 0.0319561887,
            "estimated_diameter_max": 0.0714562102
        },
        "meters": {
            "estimated_diameter_min": 31.9561886721,
            "estimated_diameter_max": 71.4562101727
        },
        "miles": {
            "estimated_diameter_min": 0.0198566489,
            "estimated_diameter_max": 0.0444008168
        },
        "feet": {
            "estimated_diameter_min": 104.8431420431,
            "estimated_diameter_max": 234.436392583
        }
    },
    "is_potentially_hazardous_asteroid": false,
    "close_approach_data": [
        {
            "close_approach_date": "2007-10-31",
            "close_approach_date_full": "2007-Oct-31 06:55",
            "epoch_date_close_approach": 1193813700000,
            "relative_velocity": {
                "kilometers_per_second": "8.8337496365",
                "kilometers_per_hour": "31801.4986913682",
                "miles_per_hour": "19760.2145618671"
            },
            "miss_distance": {
                "astronomical": "0.0588149085",
                "lunar": "22.8789994065",
                "kilometers": "8798585.035844895",
                "miles": "5467187.224433751"
            },
            "orbiting_body": "Earth"
        }
    ],
    "orbital_data": {
        "orbit_id": "6",
        "orbit_determination_date": "2017-04-06 09:05:10",
        "first_observation_date": "2007-11-14",
        "last_observation_date": "2007-11-16",
        "data_arc_in_days": 2,
        "observations_used": 12,
        "orbit_uncertainty": "9",
        "minimum_orbit_intersection": ".0190114",
        "jupiter_tisserand_invariant": "5.553",
        "epoch_osculation": "2454419.5",
        "eccentricity": ".2455024946904711",
        "semi_major_axis": "1.112269558693918",
        "inclination": "12.66337545490808",
        "ascending_node_longitude": "223.3702600076839",
        "orbital_period": "428.4631771608567",
        "perihelion_distance": ".839204607266292",
        "perihelion_argument": "95.67245430684225",
        "aphelion_distance": "1.385334510121545",
        "perihelion_time": "2454339.774182285852",
        "mean_anomaly": "66.98660680079408",
        "mean_motion": ".8402122263702634",
        "equinox": "J2000",
        "orbit_class": {
            "orbit_class_type": "APO",
            "orbit_class_description": "Near-Earth asteroid orbits which cross the Earth’s orbit similar to that of 1862 Apollo",
            "orbit_class_range": "a (semi-major axis) > 1.0 AU; q (perihelion) < 1.017 AU"
        }
    },
    "is_sentry_object": false
}